COSMOS 2503             
1 40420U 15009A   26068.69626972  .00002817  00000+0  19590-3 0  9998
2 40420  97.8437 123.7175 0015321 225.7450 134.2520 15.06275973603958
STARLINK-4207           
1 52871U 22062AT  26068.16682727  .00000245  00000+0  33512-4 0  9994
2 52871  53.2194  16.4682 0001449  82.0425 278.0732 15.08841242205983
